{"type": "FeatureCollection", "features": [ {"type": "Feature", "properties": {"norad_id": 44476, "name": "INTELSAT 39 (IS-39)", "group": "intelsat", "lat": -0.04075221262671548, "lon": -88.72136316948082, "alt_km": 35789.99210051393, "timestamp": "2025-12-25T07:41:09.390861+00:00", "meta": {"OBJECT_NAME": "INTELSAT 39 (IS-39)", "OBJECT_ID": "2019-049B", "EPOCH": "2025-12-24T22:24:13.136832", "MEAN_MOTION": 1.00273411, "ECCENTRICITY": 0.00011708, "INCLINATION": 0.0207, "RA_OF_ASC_NODE": 15.1328, "ARG_OF_PERICENTER": 48.4126, "MEAN_ANOMALY": 68.1281, "EPHEMERIS_TYPE": 0, "CLASSIFICATION_TYPE": "U", "NORAD_CAT_ID": 44476, "ELEMENT_SET_NO": 999, "REV_AT_EPOCH": 2338, "BSTAR": 0, "MEAN_MOTION_DOT": 0, "MEAN_MOTION_DDOT": 0}, "tle": {"line1": "1 44476U 19049B   25358.93348538  .00000000  00000+0  00000+0 0  9992", "line2": "2 44476   0.0207  15.1328 0001170  48.4126  68.1281  1.00273411 23381"}}, "geometry": {"type": "Point", "coordinates": [-88.72136316948082, -0.04075221262671548]}}, {"type": "Feature", "properties": {"norad_id": 46114, "name": "GALAXY 30 (G-30)", "group": "intelsat", "lat": 0.030659026397725598, "lon": 84.36466337959381, "alt_km": 35795.192195994765, "timestamp": "2025-12-25T07:41:09.390872+00:00", "meta": {"OBJECT_NAME": "GALAXY 30 (G-30)", "OBJECT_ID": "2020-056C", "EPOCH": "2025-12-24T14:13:04.643040", "MEAN_MOTION": 1.00271053, "ECCENTRICITY": 0.00021373, "INCLINATION": 0.0158, "RA_OF_ASC_NODE": 331.484, "ARG_OF_PERICENTER": 301.012, "MEAN_ANOMALY": 269.1362, "EPHEMERIS_TYPE": 0, "CLASSIFICATION_TYPE": "U", "NORAD_CAT_ID": 46114, "ELEMENT_SET_NO": 999, "REV_AT_EPOCH": 1954, "BSTAR": 0, "MEAN_MOTION_DOT": 5.8e-07, "MEAN_MOTION_DDOT": 0}, "tle": {"line1": "1 46114U 20056C   25358.59241485  .00000058  00000+0  00000+0 0  9991", "line2": "2 46114   0.0158 331.4840 0002137 301.0120 269.1362  1.00271053 19542"}}, "geometry": {"type": "Point", "coordinates": [84.36466337959381, 0.030659026397725598]}}, {"type": "Feature", "properties": {"norad_id": 54026, "name": "GALAXY 33 (G-33)", "group": "intelsat", "lat": 0.02234536091255835, "lon": 76.37599394421264, "alt_km": 35792.74779357727, "timestamp": "2025-12-25T07:41:09.390884+00:00", "meta": {"OBJECT_NAME": "GALAXY 33 (G-33)", "OBJECT_ID": "2022-128A", "EPOCH": "2025-12-24T04:31:51.326400", "MEAN_MOTION": 1.00272122, "ECCENTRICITY": 0.0001643, "INCLINATION": 0.0126, "RA_OF_ASC_NODE": 315.9231, "ARG_OF_PERICENTER": 309.5058, "MEAN_ANOMALY": 122.5078, "EPHEMERIS_TYPE": 0, "CLASSIFICATION_TYPE": "U", "NORAD_CAT_ID": 54026, "ELEMENT_SET_NO": 999, "REV_AT_EPOCH": 1198, "BSTAR": 0, "MEAN_MOTION_DOT": 1e-06, "MEAN_MOTION_DDOT": 0}, "tle": {"line1": "1 54026U 22128A   25358.18878850  .00000100  00000+0  00000+0 0  9999", "line2": "2 54026   0.0126 315.9231 0001643 309.5058 122.5078  1.00272122 11987"}}, "geometry": {"type": "Point", "coordinates": [76.37599394421264, 0.02234536091255835]}}, {"type": "Feature", "properties": {"norad_id": 54027, "name": "GALAXY 34 (G-34)", "group": "intelsat", "lat": 0.0416793256761471, "lon": 80.4047754696158, "alt_km": 35793.927766660934, "timestamp": "2025-12-25T07:41:09.390896+00:00", "meta": {"OBJECT_NAME": "GALAXY 34 (G-34)", "OBJECT_ID": "2022-128B", "EPOCH": "2025-12-24T13:27:04.950144", "MEAN_MOTION": 1.00269797, "ECCENTRICITY": 0.00017445, "INCLINATION": 0.0224, "RA_OF_ASC_NODE": 357.4113, "ARG_OF_PERICENTER": 268.0239, "MEAN_ANOMALY": 260.7121, "EPHEMERIS_TYPE": 0, "CLASSIFICATION_TYPE": "U", "NORAD_CAT_ID": 54027, "ELEMENT_SET_NO": 999, "REV_AT_EPOCH": 1216, "BSTAR": 0, "MEAN_MOTION_DOT": 0, "MEAN_MOTION_DDOT": 0}, "tle": {"line1": "1 54027U 22128B   25358.56047396  .00000000  00000+0  00000+0 0  9994", "line2": "2 54027   0.0224 357.4113 0001744 268.0239 260.7121  1.00269797 12168"}}, "geometry": {"type": "Point", "coordinates": [80.4047754696158, 0.0416793256761471]}}, {"type": "Feature", "properties": {"norad_id": 54243, "name": "GALAXY 31 (G-31)", "group": "intelsat", "lat": 0.010991679679549964, "lon": 88.36388368912479, "alt_km": 35792.389010044506, "timestamp": "2025-12-25T07:41:09.390908+00:00", "meta": {"OBJECT_NAME": "GALAXY 31 (G-31)", "OBJECT_ID": "2022-153A", "EPOCH": "2025-12-24T14:14:12.035040", "MEAN_MOTION": 1.00271389, "ECCENTRICITY": 0.00015241, "INCLINATION": 0.025, "RA_OF_ASC_NODE": 248.306, "ARG_OF_PERICENTER": 34.989, "MEAN_ANOMALY": 262.6161, "EPHEMERIS_TYPE": 0, "CLASSIFICATION_TYPE": "U", "NORAD_CAT_ID": 54243, "ELEMENT_SET_NO": 999, "REV_AT_EPOCH": 538, "BSTAR": 0, "MEAN_MOTION_DOT": 3.4e-07, "MEAN_MOTION_DDOT": 0}, "tle": {"line1": "1 54243U 22153A   25358.59319485  .00000034  00000+0  00000+0 0  9993", "line2": "2 54243   0.0250 248.3060 0001524  34.9890 262.6161  1.00271389  5386"}}, "geometry": {"type": "Point", "coordinates": [88.36388368912479, 0.010991679679549964]}}, {"type": "Feature", "properties": {"norad_id": 54244, "name": "GALAXY 32 (G-32)", "group": "intelsat", "lat": 0.030150920069230733, "lon": 118.36854537723335, "alt_km": 35794.03217541772, "timestamp": "2025-12-25T07:41:09.390920+00:00", "meta": {"OBJECT_NAME": "GALAXY 32 (G-32)", "OBJECT_ID": "2022-153B", "EPOCH": "2025-12-24T09:22:58.424736", "MEAN_MOTION": 1.00271076, "ECCENTRICITY": 0.00019303, "INCLINATION": 0.0094, "RA_OF_ASC_NODE": 17.9, "ARG_OF_PERICENTER": 299.4695, "MEAN_ANOMALY": 185.5393, "EPHEMERIS_TYPE": 0, "CLASSIFICATION_TYPE": "U", "NORAD_CAT_ID": 54244, "ELEMENT_SET_NO": 999, "REV_AT_EPOCH": 1139, "BSTAR": 0, "MEAN_MOTION_DOT": -1.53e-06, "MEAN_MOTION_DDOT": 0}, "tle": {"line1": "1 54244U 22153B   25358.39095399 -.00000153  00000+0  00000+0 0  9990", "line2": "2 54244   0.0094  17.9000 0001930 299.4695 185.5393  1.00271076 11390"}}, "geometry": {"type": "Point", "coordinates": [118.36854537723335, 0.030150920069230733]}}, {"type": "Feature", "properties": {"norad_id": 54741, "name": "GALAXY 35 (G-35)", "group": "intelsat", "lat": 0.007294270767106454, "lon": 116.2627159485102, "alt_km": 35795.39885714165, "timestamp": "2025-12-25T07:41:09.390931+00:00", "meta": {"OBJECT_NAME": "GALAXY 35 (G-35)", "OBJECT_ID": "2022-170A", "EPOCH": "2025-12-24T19:30:19.264608", "MEAN_MOTION": 1.00271233, "ECCENTRICITY": 0.00023038, "INCLINATION": 0.0293, "RA_OF_ASC_NODE": 245.853, "ARG_OF_PERICENTER": 29.9722, "MEAN_ANOMALY": 17.2453, "EPHEMERIS_TYPE": 0, "CLASSIFICATION_TYPE": "U", "NORAD_CAT_ID": 54741, "ELEMENT_SET_NO": 999, "REV_AT_EPOCH": 1114, "BSTAR": 0, "MEAN_MOTION_DOT": -1.41e-06, "MEAN_MOTION_DDOT": 0}, "tle": {"line1": "1 54741U 22170A   25358.81272297 -.00000141  00000+0  00000+0 0  9999", "line2": "2 54741   0.0293 245.8530 0002303  29.9722  17.2453  1.00271233 11141"}}, "geometry": {"type": "Point", "coordinates": [116.2627159485102, 0.007294270767106454]}}, {"type": "Feature", "properties": {"norad_id": 54742, "name": "GALAXY 36 (G-36)", "group": "intelsat", "lat": 0.019520779052859566, "lon": 120.37475380494469, "alt_km": 35787.0026555005, "timestamp": "2025-12-25T07:41:09.390943+00:00", "meta": {"OBJECT_NAME": "GALAXY 36 (G-36)", "OBJECT_ID": "2022-170B", "EPOCH": "2025-12-24T19:31:26.656608", "MEAN_MOTION": 1.00272338, "ECCENTRICITY": 3.4e-05, "INCLINATION": 0.0115, "RA_OF_ASC_NODE": 80.8089, "ARG_OF_PERICENTER": 262.5757, "MEAN_ANOMALY": 314.0656, "EPHEMERIS_TYPE": 0, "CLASSIFICATION_TYPE": "U", "NORAD_CAT_ID": 54742, "ELEMENT_SET_NO": 999, "REV_AT_EPOCH": 1102, "BSTAR": 0, "MEAN_MOTION_DOT": -1.64e-06, "MEAN_MOTION_DDOT": 0}, "tle": {"line1": "1 54742U 22170B   25358.81350297 -.00000164  00000+0  00000+0 0  9992", "line2": "2 54742   0.0115  80.8089 0000340 262.5757 314.0656  1.00272338 11020"}}, "geometry": {"type": "Point", "coordinates": [120.37475380494469, 0.019520779052859566]}}, {"type": "Feature", "properties": {"norad_id": 57493, "name": "GALAXY 37 (G-37)", "group": "intelsat", "lat": 0.03539281426470712, "lon": 82.3619985940995, "alt_km": 35794.57521911693, "timestamp": "2025-12-25T07:41:09.390955+00:00", "meta": {"OBJECT_NAME": "GALAXY 37 (G-37)", "OBJECT_ID": "2023-112A", "EPOCH": "2025-12-24T17:37:52.532256", "MEAN_MOTION": 1.00271631, "ECCENTRICITY": 0.00020764, "INCLINATION": 0.0166, "RA_OF_ASC_NODE": 13.7195, "ARG_OF_PERICENTER": 263.5118, "MEAN_ANOMALY": 313.7338, "EPHEMERIS_TYPE": 0, "CLASSIFICATION_TYPE": "U", "NORAD_CAT_ID": 57493, "ELEMENT_SET_NO": 999, "REV_AT_EPOCH": 879, "BSTAR": 0, "MEAN_MOTION_DOT": 6.9e-07, "MEAN_MOTION_DDOT": 0}, "tle": {"line1": "1 57493U 23112A   25358.73463579  .00000069  00000+0  00000+0 0  9997", "line2": "2 57493   0.0166  13.7195 0002076 263.5118 313.7338  1.00271631  8793"}}, "geometry": {"type": "Point", "coordinates": [82.3619985940995, 0.03539281426470712]}}]}